[{"OBJECT_NAME":"STARLINK-30158","OBJECT_ID":"2023-105J","EPOCH":"2026-03-09T22:00:01.999584","MEAN_MOTION":15.26647698,"ECCENTRICITY":8.427e-5,"INCLINATION":42.9998,"RA_OF_ASC_NODE":258.617,"ARG_OF_PERICENTER":260.5595,"MEAN_ANOMALY":182.1627,"EPHEMERIS_TYPE":0,"CLASSIFICATION_TYPE":"U","NORAD_CAT_ID":57438,"ELEMENT_SET_NO":999,"REV_AT_EPOCH":567,"BSTAR":0.0040894772,"MEAN_MOTION_DOT":0.00110786,"MEAN_MOTION_DDOT":0},{"OBJECT_NAME":"LIZZIESAT-1 (LS-1)","OBJECT_ID":"2024-043AL","EPOCH":"2026-03-09T21:24:55.126944","MEAN_MOTION":15.26635712,"ECCENTRICITY":0.00099234,"INCLINATION":97.5461,"RA_OF_ASC_NODE":203.4772,"ARG_OF_PERICENTER":229.9925,"MEAN_ANOMALY":130.0443,"EPHEMERIS_TYPE":0,"CLASSIFICATION_TYPE":"U","NORAD_CAT_ID":59132,"ELEMENT_SET_NO":999,"REV_AT_EPOCH":11178,"BSTAR":0.0002232873,"MEAN_MOTION_DOT":5.784e-5,"MEAN_MOTION_DDOT":0}]
